NORAD_CAT_ID,OBJECT_NAME,OBJECT_TYPE,EPOCH,MEAN_MOTION,ECCENTRICITY,INCLINATION,RA_OF_ASC_NODE,ARG_OF_PERICENTER,MEAN_ANOMALY,BSTAR,MEAN_MOTION_DOT,MEAN_MOTION_DDOT,TLE_LINE0,TLE_LINE1,TLE_LINE2,SEMIMAJOR_AXIS,PERIOD,APOGEE,PERIGEE,DECAYED
52285.0,STARLINK-3775,PAYLOAD,2023-12-18 16:33:01,15.08839802,0.0001298,53.2165,154.33,91.9076,268.2065,6.2194e-05,7.02e-06,0.0,0 STARLINK-3775,1 52285U 22041AA  23352.68960570  .00000702  00000-0  62194-4 0  9992,2 52285  53.2165 154.3300 0001298  91.9076 268.2065 15.08839802 91782,6917.881,95.438,540.644,538.848,0.0
52285.0,STARLINK-3775,PAYLOAD,2023-12-19 14:48:25,15.08840204,0.0001283,53.2166,150.1671,90.7906,269.3233,6.9659e-05,8.21e-06,0.0,0 STARLINK-3775,1 52285U 22041AA  23353.61696633  .00000821  00000-0  69659-4 0  9997,2 52285  53.2166 150.1671 0001283  90.7906 269.3233 15.08840204 91924,6917.88,95.438,540.632,538.857,0.0
52285.0,STARLINK-3775,PAYLOAD,2023-12-19 17:59:12,15.08842235,0.0001278,53.2168,149.5729,84.6096,275.5042,7.9073e-05,9.71e-06,0.0,0 STARLINK-3775,1 52285U 22041AA  23353.74944500  .00000971  00000-0  79073-4 0  9997,2 52285  53.2168 149.5729 0001278  84.6096 275.5042 15.08842235 93170,6917.874,95.437,540.623,538.854,0.0
52285.0,STARLINK-3775,PAYLOAD,2023-12-20 17:49:59,15.08840708,0.0001373,53.2171,145.1133,70.9746,289.1395,7.1164e-05,8.45e-06,0.0,0 STARLINK-3775,1 52285U 22041AA  23354.74304865  .00000845  00000-0  71164-4 0  9995,2 52285  53.2171 145.1133 0001373  70.9746 289.1395 15.08840708 93323,6917.878,95.438,540.693,538.793,0.0
52285.0,STARLINK-3775,PAYLOAD,2023-12-21 14:30:00,15.08842275,0.000145,53.2178,141.2464,68.0743,292.0403,9.661e-06,-1.34e-06,0.0,0 STARLINK-3775,1 52285U 22041AA  23355.60417118 -.00000134  00000-0  96610-5 0  9993,2 52285  53.2178 141.2464 0001450  68.0743 292.0403 15.08842275 92227,6917.873,95.437,540.742,538.735,0.0
52285.0,STARLINK-3775,PAYLOAD,2023-12-21 16:05:23,15.08843566,0.0001543,53.2175,140.9499,65.0814,295.0338,4.1115e-05,3.66e-06,0.0,0 STARLINK-3775,1 52285U 22041AA  23355.67040981  .00000366  00000-0  41115-4 0  9995,2 52285  53.2175 140.9499 0001543  65.0814 295.0338 15.08843566 92232,6917.869,95.437,540.802,538.667,0.0
52285.0,STARLINK-3775,PAYLOAD,2023-12-22 14:20:47,15.08843062,0.000156,53.2173,136.7873,67.4224,292.6933,8.4548e-05,1.058e-05,0.0,0 STARLINK-3775,1 52285U 22041AA  23356.59776987  .00001058  00000-0  84548-4 0  9995,2 52285  53.2173 136.7873 0001560  67.4224 292.6933 15.08843062 92379,6917.871,95.437,540.815,538.657,0.0
52285.0,STARLINK-3775,PAYLOAD,2023-12-22 15:56:10,15.08844449,0.0001608,53.2173,136.4901,65.8987,294.2173,9.4756e-05,1.221e-05,0.0,0 STARLINK-3775,1 52285U 22041AA  23356.66400879  .00001221  00000-0  94756-4 0  9991,2 52285  53.2173 136.4901 0001608  65.8987 294.2173 15.08844449 93611,6917.867,95.437,540.844,538.619,0.0
52285.0,STARLINK-3775,PAYLOAD,2023-12-23 14:11:34,15.08839874,0.0001594,53.2179,132.3283,107.0274,253.0893,4.9225e-05,4.95e-06,0.0,0 STARLINK-3775,1 52285U 22041AA  23357.59137115  .00000495  00000-0  49225-4 0  9997,2 52285  53.2179 132.3283 0001594 107.0274 253.0893 15.08839874 92524,6917.881,95.438,540.848,538.643,0.0
52285.0,STARLINK-3775,PAYLOAD,2023-12-23 15:46:57,15.08840392,0.0001519,53.2175,132.0354,94.6995,265.4171,5.2081e-05,5.41e-06,0.0,0 STARLINK-3775,1 52285U 22041AA  23357.65761173  .00000541  00000-0  52081-4 0  9997,2 52285  53.2175 132.0354 0001519  94.6995 265.4171 15.08840392 93764,6917.879,95.438,540.795,538.693,0.0
52285.0,STARLINK-3775,PAYLOAD,2023-12-24 12:26:58,15.08797505,0.0001849,53.2179,128.1708,111.4808,248.6382,0.00067392,0.00010441,0.0,0 STARLINK-3775,1 52285U 22041AA  23358.51873443  .00010441  00000-0  67392-3 0  9997,2 52285  53.2179 128.1708 0001849 111.4808 248.6382 15.08797505 93892,6918.01,95.44,541.154,538.596,0.0
52285.0,STARLINK-3775,PAYLOAD,2023-12-24 14:02:21,15.08850139,0.0001301,53.2169,127.8688,64.847,295.2657,9.0546e-07,-2.74e-06,0.0,0 STARLINK-3775,1 52285U 22041AA  23358.58496778 -.00000274  00000-0  90546-6 0  9990,2 52285  53.2169 127.8688 0001301  64.8470 295.2657 15.08850139 92674,6917.849,95.437,540.614,538.814,0.0
52285.0,STARLINK-3775,PAYLOAD,2023-12-24 18:48:30,15.08827389,0.0001466,53.2174,126.9737,85.5305,274.5854,0.00043456,6.632e-05,0.0,0 STARLINK-3775,1 52285U 22041AA  23358.78368905  .00006632  00000-0  43456-3 0  9990,2 52285  53.2174 126.9737 0001466  85.5305 274.5854 15.08827389 93934,6917.919,95.438,540.798,538.77,0.0
52285.0,STARLINK-3775,PAYLOAD,2023-12-25 13:53:08,15.08839184,0.000134,53.2174,123.4078,79.0672,281.0471,6.7616e-05,7.88e-06,0.0,0 STARLINK-3775,1 52285U 22041AA  23359.57857295  .00000788  00000-0  67616-4 0  9994,2 52285  53.2174 123.4078 0001340  79.0672 281.0471 15.08839184 92821,6917.883,95.438,540.675,538.821,0.0
52285.0,STARLINK-3775,PAYLOAD,2023-12-25 15:28:31,15.08842416,0.0001347,53.2174,123.1097,85.1893,274.9253,9.9301e-05,1.293e-05,0.0,0 STARLINK-3775,1 52285U 22041AA  23359.64481014  .00001293  00000-0  99301-4 0  9992,2 52285  53.2174 123.1097 0001347  85.1893 274.9253 15.08842416 92831,6917.873,95.437,540.67,538.806,0.0
52285.0,STARLINK-3775,PAYLOAD,2023-12-26 12:08:32,15.0883917,0.0001224,53.2172,119.2421,88.5402,271.573,-6.2726e-06,-3.88e-06,0.0,0 STARLINK-3775,1 52285U 22041AA  23360.50593672 -.00000388  00000-0 -62726-5 0  9991,2 52285  53.2172 119.2421 0001224  88.5402 271.5730 15.08839170 94190,6917.883,95.438,540.595,538.901,0.0
52285.0,STARLINK-3775,PAYLOAD,2023-12-26 13:43:55,15.08839684,0.0001208,53.2172,118.945,92.3737,267.7393,-4.8231e-06,-3.65e-06,0.0,0 STARLINK-3775,1 52285U 22041AA  23360.57217590 -.00000365  00000-0 -48231-5 0  9990,2 52285  53.2172 118.9450 0001208  92.3737 267.7393 15.08839684 92970,6917.881,95.438,540.582,538.911,0.0
52285.0,STARLINK-3775,PAYLOAD,2023-12-27 13:34:43,15.08841386,0.0001259,53.2171,114.4859,78.1744,281.9389,8.0912e-05,1e-05,0.0,0 STARLINK-3775,1 52285U 22041AA  23361.56577747  .00001000  00000-0  80912-4 0  9999,2 52285  53.2171 114.4859 0001259  78.1744 281.9389 15.08841386 93122,6917.876,95.437,540.612,538.87,0.0
52285.0,STARLINK-3775,PAYLOAD,2023-12-27 16:45:28,15.08849886,0.000121,53.217,113.8907,94.8704,265.2426,0.00014907,2.086e-05,0.0,0 STARLINK-3775,1 52285U 22041AA  23361.69824997  .00002086  00000-0  14907-3 0  9990,2 52285  53.2170 113.8907 0001210  94.8704 265.2426 15.08849886 94374,6917.85,95.437,540.552,538.878,0.0
52285.0,STARLINK-3775,PAYLOAD,2023-12-28 11:50:08,15.08822231,0.0002418,53.2167,110.323,117.1798,242.9441,-4.1548e-05,-9.49e-06,0.0,0 STARLINK-3775,1 52285U 22041AA  23362.49315858 -.00000949  00000-0 -41548-4 0  9990,2 52285  53.2167 110.3230 0002418 117.1798 242.9441 15.08822231 94491,6917.935,95.439,541.472,538.127,0.0
52285.0,STARLINK-3775,PAYLOAD,2023-12-28 13:25:31,15.08830915,0.0001287,53.2166,110.0251,95.6916,264.4223,0.00013428,1.849e-05,0.0,0 STARLINK-3775,1 52285U 22041AA  23362.55939665  .00001849  00000-0  13428-3 0  9998,2 52285  53.2166 110.0251 0001287  95.6916 264.4223 15.08830915 93275,6917.908,95.438,540.663,538.883,0.0
52285.0,STARLINK-3775,PAYLOAD,2023-12-28 15:00:55,15.08833725,0.000125,53.2167,109.7277,85.4476,274.6659,0.00018615,2.675e-05,0.0,0 STARLINK-3775,1 52285U 22041AA  23362.62563672  .00002675  00000-0  18615-3 0  9998,2 52285  53.2167 109.7277 0001250  85.4476 274.6659 15.08833725 93286,6917.9,95.438,540.629,538.9,0.0
52285.0,STARLINK-3775,PAYLOAD,2023-12-29 11:40:54,15.08858419,0.0001104,53.2169,105.866,94.4559,265.6559,0.00035871,5.428e-05,0.0,0 STARLINK-3775,1 52285U 22041AA  23363.48674508  .00005428  00000-0  35871-3 0  9996,2 52285  53.2169 105.8660 0001104  94.4559 265.6559 15.08858419 94648,6917.824,95.436,540.453,538.925,0.0
52285.0,STARLINK-3775,PAYLOAD,2023-12-29 13:16:17,15.08864893,0.0001572,53.2173,105.57,67.6825,292.4334,0.00048503,7.445e-05,0.0,0 STARLINK-3775,1 52285U 22041AA  23363.55298330  .00007445  00000-0  48503-3 0  9996,2 52285  53.2173 105.5700 0001572  67.6825 292.4334 15.08864893 93429,6917.804,95.436,540.757,538.582,0.0
52285.0,STARLINK-3775,PAYLOAD,2023-12-30 11:31:41,15.08867022,0.0001433,53.2168,101.4037,79.7666,280.3487,0.00038339,5.823e-05,0.0,0 STARLINK-3775,1 52285U 22041AA  23364.48033889  .00005823  00000-0  38339-3 0  9999,2 52285  53.2168 101.4037 0001433  79.7666 280.3487 15.08867022 94797,6917.798,95.436,540.654,538.671,0.0
52285.0,STARLINK-3775,PAYLOAD,2023-12-30 13:07:04,15.08871168,0.0001497,53.2166,101.1062,77.8342,282.2817,0.00043803,6.696e-05,0.0,0 STARLINK-3775,1 52285U 22041AA  23364.54657635  .00006696  00000-0  43803-3 0  9998,2 52285  53.2166 101.1062 0001497  77.8342 282.2817 15.08871168 93579,6917.785,95.436,540.686,538.615,0.0
52285.0,STARLINK-3775,PAYLOAD,2023-12-31 11:22:28,15.08835048,0.0001577,53.2169,96.9393,114.1776,245.9381,-6.6106e-05,-1.34e-05,0.0,0 STARLINK-3775,1 52285U 22041AA  23365.47393761 -.00001340  00000-0 -66106-4 0  9993,2 52285  53.2169  96.9393 0001577 114.1776 245.9381 15.08835048 94946,6917.896,95.438,540.851,538.67,0.0
52285.0,STARLINK-3775,PAYLOAD,2023-12-31 12:57:51,15.08841466,0.0001312,53.2165,96.6408,108.5693,251.5442,-0.00022619,-3.886e-05,0.0,0 STARLINK-3775,1 52285U 22041AA  23365.54017661 -.00003886  00000-0 -22619-3 0  9990,2 52285  53.2165  96.6408 0001312 108.5693 251.5442 15.08841466 93725,6917.876,95.437,540.649,538.833,0.0
52285.0,STARLINK-3775,PAYLOAD,2024-01-01 11:13:15,15.08845344,0.000137,53.217,92.4798,102.9717,257.1428,-1.5979e-06,-3.13e-06,0.0,0 STARLINK-3775,1 52285U 22041AA  24001.46754027 -.00000313  00000-0 -15979-5 0  9998,2 52285  53.2170  92.4798 0001370 102.9717 257.1428 15.08845344 93866,6917.864,95.437,540.677,538.781,0.0
52285.0,STARLINK-3775,PAYLOAD,2024-01-02 11:04:02,15.08842077,0.0001322,53.2164,88.0216,96.0442,264.0701,0.00029087,4.345e-05,0.0,0 STARLINK-3775,1 52285U 22041AA  24002.46114505  .00004345  00000-0  29087-3 0  9990,2 52285  53.2164  88.0216 0001322  96.0442 264.0701 15.08842077 95245,6917.874,95.437,540.654,538.824,0.0
